[{"OBJECT_NAME":"DUPLEX","OBJECT_ID":"1998-067XS","EPOCH":"2026-03-17T20:50:35.117664","MEAN_MOTION":15.5674957,"ECCENTRICITY":0.0002923,"INCLINATION":51.63,"RA_OF_ASC_NODE":28.5236,"ARG_OF_PERICENTER":147.5599,"MEAN_ANOMALY":212.5573,"EPHEMERIS_TYPE":0,"CLASSIFICATION_TYPE":"U","NORAD_CAT_ID":66906,"ELEMENT_SET_NO":999,"REV_AT_EPOCH":1640,"BSTAR":0.00033315,"MEAN_MOTION_DOT":0.00023871,"MEAN_MOTION_DDOT":0},{"OBJECT_NAME":"ISS OBJECT XT","OBJECT_ID":"1998-067XT","EPOCH":"2026-03-17T20:29:49.345440","MEAN_MOTION":15.72037118,"ECCENTRICITY":0.000496,"INCLINATION":51.6254,"RA_OF_ASC_NODE":23.9047,"ARG_OF_PERICENTER":133.7464,"MEAN_ANOMALY":226.3945,"EPHEMERIS_TYPE":0,"CLASSIFICATION_TYPE":"U","NORAD_CAT_ID":66907,"ELEMENT_SET_NO":999,"REV_AT_EPOCH":1646,"BSTAR":0.0010418,"MEAN_MOTION_DOT":0.00141215,"MEAN_MOTION_DDOT":0},{"OBJECT_NAME":"ISS OBJECT XU","OBJECT_ID":"1998-067XU","EPOCH":"2026-03-17T20:26:12.776064","MEAN_MOTION":15.72184619,"ECCENTRICITY":0.0005185,"INCLINATION":51.6253,"RA_OF_ASC_NODE":23.8844,"ARG_OF_PERICENTER":134.5412,"MEAN_ANOMALY":225.601,"EPHEMERIS_TYPE":0,"CLASSIFICATION_TYPE":"U","NORAD_CAT_ID":66908,"ELEMENT_SET_NO":999,"REV_AT_EPOCH":1646,"BSTAR":0.001051,"MEAN_MOTION_DOT":0.00143415,"MEAN_MOTION_DDOT":0},{"OBJECT_NAME":"SILVERSAT","OBJECT_ID":"1998-067XV","EPOCH":"2026-03-17T20:03:35.166816","MEAN_MOTION":15.75860504,"ECCENTRICITY":0.0005592,"INCLINATION":51.6245,"RA_OF_ASC_NODE":23.0257,"ARG_OF_PERICENTER":135.6947,"MEAN_ANOMALY":224.4501,"EPHEMERIS_TYPE":0,"CLASSIFICATION_TYPE":"U","NORAD_CAT_ID":66909,"ELEMENT_SET_NO":999,"REV_AT_EPOCH":1647,"BSTAR":0.0012052,"MEAN_MOTION_DOT":0.00194062,"MEAN_MOTION_DDOT":0},{"OBJECT_NAME":"ISS OBJECT XW","OBJECT_ID":"1998-067XW","EPOCH":"2026-03-17T20:28:22.653408","MEAN_MOTION":15.71100096,"ECCENTRICITY":0.0005548,"INCLINATION":51.6246,"RA_OF_ASC_NODE":23.8907,"ARG_OF_PERICENTER":135.682,"MEAN_ANOMALY":224.4623,"EPHEMERIS_TYPE":0,"CLASSIFICATION_TYPE":"U","NORAD_CAT_ID":66910,"ELEMENT_SET_NO":999,"REV_AT_EPOCH":1646,"BSTAR":0.00094833,"MEAN_MOTION_DOT":0.0012325,"MEAN_MOTION_DDOT":0},{"OBJECT_NAME":"ISS OBJECT XX","OBJECT_ID":"1998-067XX","EPOCH":"2026-03-17T21:03:01.984320","MEAN_MOTION":15.8010894,"ECCENTRICITY":0.000719,"INCLINATION":51.6216,"RA_OF_ASC_NODE":21.775,"ARG_OF_PERICENTER":140.6515,"MEAN_ANOMALY":219.501,"EPHEMERIS_TYPE":0,"CLASSIFICATION_TYPE":"U","NORAD_CAT_ID":66911,"ELEMENT_SET_NO":999,"REV_AT_EPOCH":1648,"BSTAR":0.0012731,"MEAN_MOTION_DOT":0.00249839,"MEAN_MOTION_DDOT":0},{"OBJECT_NAME":"ISS OBJECT XY","OBJECT_ID":"1998-067XY","EPOCH":"2026-03-17T21:14:51.311040","MEAN_MOTION":15.65311946,"ECCENTRICITY":0.0003618,"INCLINATION":51.6276,"RA_OF_ASC_NODE":25.6291,"ARG_OF_PERICENTER":137.8396,"MEAN_ANOMALY":222.2878,"EPHEMERIS_TYPE":0,"CLASSIFICATION_TYPE":"U","NORAD_CAT_ID":66912,"ELEMENT_SET_NO":999,"REV_AT_EPOCH":1643,"BSTAR":0.00075848,"MEAN_MOTION_DOT":0.00077134,"MEAN_MOTION_DDOT":0},{"OBJECT_NAME":"KNACKSAT-2","OBJECT_ID":"1998-067XZ","EPOCH":"2026-03-17T20:09:20.778912","MEAN_MOTION":15.52508996,"ECCENTRICITY":0.000965,"INCLINATION":51.6316,"RA_OF_ASC_NODE":31.3309,"ARG_OF_PERICENTER":214.5543,"MEAN_ANOMALY":145.482,"EPHEMERIS_TYPE":0,"CLASSIFICATION_TYPE":"U","NORAD_CAT_ID":67683,"ELEMENT_SET_NO":999,"REV_AT_EPOCH":605,"BSTAR":0.00047514,"MEAN_MOTION_DOT":0.00029346,"MEAN_MOTION_DDOT":0},{"OBJECT_NAME":"GXIBA-1","OBJECT_ID":"1998-067YA","EPOCH":"2026-03-17T20:41:07.448928","MEAN_MOTION":15.55683009,"ECCENTRICITY":0.001175,"INCLINATION":51.6316,"RA_OF_ASC_NODE":30.7297,"ARG_OF_PERICENTER":204.5716,"MEAN_ANOMALY":155.4717,"EPHEMERIS_TYPE":0,"CLASSIFICATION_TYPE":"U","NORAD_CAT_ID":67684,"ELEMENT_SET_NO":999,"REV_AT_EPOCH":606,"BSTAR":0.00086157,"MEAN_MOTION_DOT":0.00060522,"MEAN_MOTION_DDOT":0},{"OBJECT_NAME":"CORAL","OBJECT_ID":"1998-067YB","EPOCH":"2026-03-17T03:00:35.140608","MEAN_MOTION":15.5289155,"ECCENTRICITY":0.0011539,"INCLINATION":51.6322,"RA_OF_ASC_NODE":34.8103,"ARG_OF_PERICENTER":208.7599,"MEAN_ANOMALY":151.2756,"EPHEMERIS_TYPE":0,"CLASSIFICATION_TYPE":"U","NORAD_CAT_ID":67685,"ELEMENT_SET_NO":999,"REV_AT_EPOCH":594,"BSTAR":0.00053452,"MEAN_MOTION_DOT":0.00033584,"MEAN_MOTION_DDOT":0},{"OBJECT_NAME":"ISS OBJECT YC","OBJECT_ID":"1998-067YC","EPOCH":"2026-03-17T04:21:00.401760","MEAN_MOTION":15.53596478,"ECCENTRICITY":0.0008506,"INCLINATION":51.6318,"RA_OF_ASC_NODE":34.4356,"ARG_OF_PERICENTER":178.152,"MEAN_ANOMALY":181.9503,"EPHEMERIS_TYPE":0,"CLASSIFICATION_TYPE":"U","NORAD_CAT_ID":67686,"ELEMENT_SET_NO":999,"REV_AT_EPOCH":595,"BSTAR":0.00065715727,"MEAN_MOTION_DOT":0.00042474,"MEAN_MOTION_DDOT":0},{"OBJECT_NAME":"LEOPARD","OBJECT_ID":"1998-067YD","EPOCH":"2026-03-17T20:04:31.289664","MEAN_MOTION":15.52713902,"ECCENTRICITY":0.0008197,"INCLINATION":51.6319,"RA_OF_ASC_NODE":31.3108,"ARG_OF_PERICENTER":184.0691,"MEAN_ANOMALY":176.0233,"EPHEMERIS_TYPE":0,"CLASSIFICATION_TYPE":"U","NORAD_CAT_ID":67687,"ELEMENT_SET_NO":999,"REV_AT_EPOCH":597,"BSTAR":0.0005022,"MEAN_MOTION_DOT":0.00031269,"MEAN_MOTION_DDOT":0},{"OBJECT_NAME":"ISS OBJECT YE","OBJECT_ID":"1998-067YE","EPOCH":"2026-03-17T04:26:35.359872","MEAN_MOTION":15.53273796,"ECCENTRICITY":0.00082543,"INCLINATION":51.6319,"RA_OF_ASC_NODE":34.4615,"ARG_OF_PERICENTER":178.8227,"MEAN_ANOMALY":181.2784,"EPHEMERIS_TYPE":0,"CLASSIFICATION_TYPE":"U","NORAD_CAT_ID":67688,"ELEMENT_SET_NO":999,"REV_AT_EPOCH":587,"BSTAR":0.0006148397,"MEAN_MOTION_DOT":0.00039222,"MEAN_MOTION_DDOT":0},{"OBJECT_NAME":"CREW DRAGON 12","OBJECT_ID":"2026-031A","EPOCH":"2026-03-17T09:17:12.433344","MEAN_MOTION":15.48344038,"ECCENTRICITY":0.00062325,"INCLINATION":51.6338,"RA_OF_ASC_NODE":34.3055,"ARG_OF_PERICENTER":201.4845,"MEAN_ANOMALY":158.5882,"EPHEMERIS_TYPE":0,"CLASSIFICATION_TYPE":"U","NORAD_CAT_ID":67796,"ELEMENT_SET_NO":999,"REV_AT_EPOCH":55744,"BSTAR":0.00024295645,"MEAN_MOTION_DOT":0.00012661,"MEAN_MOTION_DDOT":0}]
